[{"OBJECT_NAME":"YAOGAN-36 03B","OBJECT_ID":"2022-160C","EPOCH":"2026-03-09T22:41:52.530432","MEAN_MOTION":15.19636671,"ECCENTRICITY":0.00094652,"INCLINATION":34.992,"RA_OF_ASC_NODE":267.4774,"ARG_OF_PERICENTER":342.1848,"MEAN_ANOMALY":17.8533,"EPHEMERIS_TYPE":0,"CLASSIFICATION_TYPE":"U","NORAD_CAT_ID":54374,"ELEMENT_SET_NO":999,"REV_AT_EPOCH":18261,"BSTAR":0.00040085509,"MEAN_MOTION_DOT":8.731e-5,"MEAN_MOTION_DDOT":0},{"OBJECT_NAME":"YAOGAN-39 05B","OBJECT_ID":"2023-194B","EPOCH":"2026-03-09T22:41:30.344640","MEAN_MOTION":15.16655635,"ECCENTRICITY":0.00092836,"INCLINATION":34.9938,"RA_OF_ASC_NODE":339.811,"ARG_OF_PERICENTER":155.8155,"MEAN_ANOMALY":204.2995,"EPHEMERIS_TYPE":0,"CLASSIFICATION_TYPE":"U","NORAD_CAT_ID":58558,"ELEMENT_SET_NO":999,"REV_AT_EPOCH":12501,"BSTAR":0.00038892506,"MEAN_MOTION_DOT":7.768e-5,"MEAN_MOTION_DDOT":0}]
